     2.100          NAVIGATION                              RINEX VERSION / TYPE
fic2rin                                 10/12/2008 02:12:07 PGM / RUN BY / DATE
                                                            END OF HEADER
16 08 10 11  8  0  0.0  .102113932371D-03 -.216004991671D-11  .000000000000D+00
     .700000000000D+02 -.830000000000D+02  .460840624433D-08 -.147564268555D+01
    -.428222119808D-05  .471323693637D-02  .626221299171D-05  .515368575478D+04
     .547200000000D+06 -.130385160446D-07  .166257794626D+01 -.558793544769D-08
     .966175832210D+00  .262500000000D+03 -.390866078993D+00 -.830248868912D-08
    -.357514891930D-09  .100000000000D+01  .150000000000D+04  .000000000000D+00
     .240000000000D+01  .000000000000D+00 -.977888703346D-08  .700000000000D+02
     .540006000000D+06  .400000000000D+01
17 08 10 11  8  0  0.0  .393451191485D-04  .227373675443D-12  .000000000000D+00
     .830000000000D+02 -.186562500000D+02  .418124559423D-08 -.261579872309D+01
    -.877305865288D-06  .386830349453D-02  .120308250189D-04  .515360502815D+04
     .547200000000D+06 -.111758708954D-07  .270423402277D+01 -.409781932831D-07
     .959957871539D+00  .145718750000D+03 -.279335035179D+01 -.776139472182D-08
     .996470078407D-10  .100000000000D+01  .150000000000D+04  .000000000000D+00
     .340000000000D+01  .000000000000D+00 -.102445483208D-07  .830000000000D+02
     .540006000000D+06  .400000000000D+01
18 08 10 11  8  0  0.0 -.124683603644D-03  .397903932026D-11  .000000000000D+00
     .290000000000D+02 -.381875000000D+02  .509378360510D-08 -.132415185987D+01
    -.194832682610D-05  .990953890141D-02  .605732202530D-05  .515372104836D+04
     .547200000000D+06  .210478901863D-06 -.146469396380D+01  .745058059692D-08
     .945405808472D+00  .250843750000D+03 -.245253389969D+01 -.837606318237D-08
    -.276082928534D-09  .100000000000D+01  .150000000000D+04  .000000000000D+00
     .240000000000D+01  .000000000000D+00 -.107102096081D-07  .290000000000D+02
     .540006000000D+06  .400000000000D+01
19 08 10 11  8  0  0.0  .356747768819D-04  .000000000000D+00  .000000000000D+00
     .790000000000D+02 -.381250000000D+01  .426660629271D-08  .307494146514D+01
    -.158324837685D-06  .490859081037D-02  .127125531435D-04  .515375002670D+04
     .547200000000D+06  .111758708954D-07  .276091983960D+01  .745058059692D-07
     .957756598224D+00  .131593750000D+03 -.461850585862D+00 -.781675417062D-08
     .123933733766D-09  .100000000000D+01  .150000000000D+04  .000000000000D+00
     .240000000000D+01  .000000000000D+00 -.144354999065D-07  .790000000000D+02
     .540006000000D+06  .400000000000D+01
21 08 10 11  8  0  0.0  .471626408398D-04 -.159161572810D-11  .000000000000D+00
     .160000000000D+02  .549687500000D+02  .543736934540D-08 -.109248922770D+00
     .301748514175D-05  .143206394278D-01  .547990202904D-05  .515367565918D+04
     .547200000000D+06  .160187482834D-06 -.252354635561D+01  .154599547386D-06
     .935596530208D+00  .260000000000D+03 -.267355714267D+01 -.884751139151D-08
     .352514683652D-09  .100000000000D+01  .150000000000D+04  .000000000000D+00
     .240000000000D+01  .000000000000D+00 -.116415321827D-07  .160000000000D+02
     .540006000000D+06  .400000000000D+01
22 08 10 11  8  0  0.0  .210410915315D-03 -.341060513165D-12  .000000000000D+00
     .420000000000D+02 -.426562500000D+02  .511557022689D-08 -.252771828637D+01
    -.231154263020D-05  .516568962485D-02  .623054802418D-05  .515366426277D+04
     .547200000000D+06  .104308128357D-06 -.145850017346D+01  .614672899246D-07
     .943056831634D+00  .247500000000D+03 -.182221117939D+01 -.836999150089D-08
    -.317870383435D-09  .100000000000D+01  .150000000000D+04  .000000000000D+00
     .240000000000D+01  .000000000000D+00 -.176951289177D-07  .420000000000D+02
     .540006000000D+06  .400000000000D+01
23 08 10 11  8  0  0.0  .376297626644D-03  .125055521494D-11  .000000000000D+00
     .111000000000D+03  .185000000000D+02  .411374278247D-08  .242193997728D+01
     .109523534775D-05  .587006658316D-02  .124815851450D-04  .515369489670D+04
     .547200000000D+06 -.745058059692D-08 -.447002624208D+00  .152736902237D-06
     .971360694763D+00  .144218750000D+03  .285319134205D+01 -.781211112007D-08
     .160720980388D-10  .100000000000D+01  .150000000000D+04  .000000000000D+00
     .340000000000D+01  .000000000000D+00 -.200234353542D-07  .111000000000D+03
     .540006000000D+06  .400000000000D+01
24 08 10 11  8  0  0.0  .132270157337D-03  .306954461848D-11  .000000000000D+00
     .620000000000D+02  .531562500000D+02  .498949354672D-08 -.145137979422D+01
     .274181365967D-05  .743771798443D-02  .582449138165D-05  .515365848160D+04
     .547200000000D+06 -.106170773506D-06 -.249527332933D+01 -.521540641785D-07
     .952227584192D+00  .265593750000D+03 -.695462317917D+00 -.845606651483D-08
     .407874132452D-09  .100000000000D+01  .150000000000D+04  .000000000000D+00
     .240000000000D+01  .000000000000D+00 -.139698386192D-08  .620000000000D+02
     .540006000000D+06  .400000000000D+01
26 08 10 11  8  0  0.0  .108685344458D-05  .500222085975D-11  .000000000000D+00
     .240000000000D+02  .161562500000D+02  .359979280296D-08  .194490508881D+01
     .745058059692D-06  .191895307507D-01  .114999711514D-04  .515363959694D+04
     .547200000000D+06 -.359490513802D-06 -.402141013919D+00 -.370666384697D-06
     .993555360792D+00  .176562500000D+03  .956191735235D+00 -.750674125733D-08
     .875036448780D-10  .100000000000D+01  .150000000000D+04  .000000000000D+00
     .240000000000D+01  .000000000000D+00 -.605359673500D-08  .240000000000D+02
     .540006000000D+06  .400000000000D+01
27 08 10 11  8  0  0.0  .224289018661D-03  .295585778076D-11  .000000000000D+00
     .140000000000D+02  .644375000000D+02  .465019369923D-08 -.984447624892D+00
     .359676778316D-05  .212300805142D-01  .595673918724D-05  .515371775055D+04
     .547200000000D+06 -.366941094398D-06  .535766803969D+00  .322237610817D-06
     .971389262628D+00  .273781250000D+03 -.168225717000D+01 -.853571268955D-08
     .305727020472D-09  .100000000000D+01  .150000000000D+04  .000000000000D+00
     .240000000000D+01  .000000000000D+00 -.419095158577D-08  .140000000000D+02
     .540006000000D+06  .400000000000D+01
28 08 10 11  8  0  0.0 -.230427831411D-04 -.227373675443D-12  .000000000000D+00
     .250000000000D+02 -.845000000000D+02  .452375986133D-08 -.218190637572D+01
    -.435858964920D-05  .140633148840D-01  .547617673874D-05  .515363470459D+04
     .547200000000D+06  .156462192535D-06  .167107739350D+01 -.158324837685D-06
     .964350060708D+00  .274656250000D+03 -.209050642134D+01 -.797176062726D-08
    -.282511767749D-09  .100000000000D+01  .150000000000D+04  .000000000000D+00
     .240000000000D+01  .000000000000D+00 -.102445483208D-07  .250000000000D+02
     .540006000000D+06  .400000000000D+01
29 08 10 11  8  0  0.0 -.348202884197D-04  .147792889038D-11  .000000000000D+00
     .750000000000D+02 -.625000000000D+01  .427482092059D-08  .439544723431D-01
    -.245869159698D-06  .338762369938D-02  .119674950838D-04  .515358895874D+04
     .547200000000D+06 -.139698386192D-06  .271239563689D+01 -.689178705215D-07
     .960116226569D+00  .151031250000D+03 -.137143613711D+01 -.788389982464D-08
     .328585115460D-10  .100000000000D+01  .150000000000D+04  .000000000000D+00
     .240000000000D+01  .000000000000D+00 -.884756445885D-08  .750000000000D+02
     .540006000000D+06  .400000000000D+01
30 08 10 11  8  0  0.0  .101413112134D-03  .216004991671D-11  .000000000000D+00
     .550000000000D+02 -.684687500000D+02  .501378027264D-08 -.175835275861D+01
    -.348314642906D-05  .111536622280D-01  .544078648090D-05  .515368012619D+04
     .547200000000D+06  .171363353729D-06  .160192403143D+01  .197440385818D-06
     .949467713164D+00  .266937500000D+03  .140832772728D+01 -.834213319762D-08
    -.370729728096D-09  .100000000000D+01  .150000000000D+04  .000000000000D+00
     .240000000000D+01  .000000000000D+00 -.791624188423D-08  .550000000000D+02
     .540006000000D+06  .400000000000D+01
31 08 10 11  8  0  0.0 -.317567028105D-04 -.238742359215D-11  .000000000000D+00
     .300000000000D+02  .515937500000D+02  .466197990446D-08  .714286312435D+00
     .260956585407D-05  .674773205537D-02  .520423054695D-05  .515355285835D+04
     .547200000000D+06 -.912696123123D-07  .592188242240D+00 -.113621354103D-06
     .969771686312D+00  .286093750000D+03 -.123892890300D+01 -.841892211047D-08
     .298583865788D-09  .100000000000D+01  .150000000000D+04  .000000000000D+00
     .240000000000D+01  .000000000000D+00 -.130385160446D-07  .300000000000D+02
     .540006000000D+06  .400000000000D+01
32 08 10 11  8  0  0.0  .316389370710D-03 -.341060513165D-12  .000000000000D+00
     .230000000000D+02 -.525625000000D+02  .461947813409D-08  .167723092873D+01
    -.286474823952D-05  .139654537197D-01  .674091279507D-05  .515373915482D+04
     .547200000000D+06  .333413481712D-06 -.141361433432D+01 -.186264514923D-06
     .966909583642D+00  .253468750000D+03 -.127407779932D+01 -.806855037322D-08
    -.411802867528D-09  .100000000000D+01  .150000000000D+04  .000000000000D+00
     .240000000000D+01  .000000000000D+00 -.325962901115D-08  .230000000000D+02
     .540006000000D+06  .400000000000D+01
27 08 10 11  7 59 44.0  .224286224693D-03  .295585778076D-11  .000000000000D+00
     .250000000000D+02  .644375000000D+02  .465019369923D-08 -.986781539526D+00
     .359676778316D-05  .212300828425D-01  .595673918724D-05  .515371775055D+04
     .547184000000D+06 -.366941094398D-06  .535766944409D+00  .322237610817D-06
     .971389228980D+00  .273781250000D+03 -.168225691838D+01 -.853571268955D-08
     .305727020472D-09  .100000000000D+01  .150000000000D+04  .000000000000D+00
     .240000000000D+01  .000000000000D+00 -.419095158577D-08  .250000000000D+02
     .541956000000D+06  .400000000000D+01
